NORAD_CAT_ID,OBJECT_NAME,OBJECT_TYPE,EPOCH,MEAN_MOTION,ECCENTRICITY,INCLINATION,RA_OF_ASC_NODE,ARG_OF_PERICENTER,MEAN_ANOMALY,BSTAR,MEAN_MOTION_DOT,MEAN_MOTION_DDOT,TLE_LINE0,TLE_LINE1,TLE_LINE2,SEMIMAJOR_AXIS,PERIOD,APOGEE,PERIGEE,DECAYED
53411.0,STARLINK-4497,PAYLOAD,2023-12-10 19:08:13,15.08839983,0.0001352,53.2161,194.7617,88.5161,271.5986,1.207e-05,-9.6e-07,0.0,0 STARLINK-4497,1 53411U 22097Z   23344.79738100 -.00000096  00000-0  12070-4 0  9995,2 53411  53.2161 194.7617 0001352  88.5161 271.5986 15.08839983 74383,6917.88,95.438,540.681,538.81,0.0
53411.0,STARLINK-4497,PAYLOAD,2023-12-10 20:43:36,15.08840632,0.0001361,53.216,194.4644,87.8603,272.2545,1.6899e-05,-1.9e-07,0.0,0 STARLINK-4497,1 53411U 22097Z   23344.86362011 -.00000019  00000-0  16899-4 0  9995,2 53411  53.2160 194.4644 0001361  87.8603 272.2545 15.08840632 74889,6917.878,95.438,540.685,538.802,0.0
53411.0,STARLINK-4497,PAYLOAD,2023-12-11 20:34:23,15.08844423,0.000161,53.2164,190.0052,92.9433,267.1743,6.722e-05,7.82e-06,0.0,0 STARLINK-4497,1 53411U 22097Z   23345.85721462  .00000782  00000-0  67220-4 0  9994,2 53411  53.2164 190.0052 0001610  92.9433 267.1743 15.08844423 75036,6917.867,95.437,540.846,538.618,0.0
53411.0,STARLINK-4497,PAYLOAD,2023-12-12 20:25:11,15.08832469,0.0001589,53.2172,185.5442,106.0754,254.0413,-1.781e-05,-5.71e-06,0.0,0 STARLINK-4497,1 53411U 22097Z   23346.85082502 -.00000571  00000-0 -17810-4 0  9998,2 53411  53.2172 185.5442 0001589 106.0754 254.0413 15.08832469 74692,6917.903,95.438,540.868,538.669,0.0
53411.0,STARLINK-4497,PAYLOAD,2023-12-13 20:15:59,15.08802255,0.0001826,53.2165,181.0844,109.5601,250.5589,0.00028222,4.202e-05,0.0,0 STARLINK-4497,1 53411U 22097Z   23347.84443757  .00004202  00000-0  28222-3 0  9992,2 53411  53.2165 181.0844 0001826 109.5601 250.5589 15.08802255 74846,6917.996,95.44,541.124,538.598,0.0
53411.0,STARLINK-4497,PAYLOAD,2023-12-14 20:06:46,15.08831067,0.000147,53.2167,176.6237,95.4042,264.7118,6.783e-05,7.91e-06,0.0,0 STARLINK-4497,1 53411U 22097Z   23348.83803464  .00000791  00000-0  67830-4 0  9995,2 53411  53.2167 176.6237 0001470  95.4042 264.7118 15.08831067 74995,6917.908,95.438,540.79,538.756,0.0
53411.0,STARLINK-4497,PAYLOAD,2023-12-15 19:57:33,15.08838044,0.0001375,53.2159,172.1635,94.2229,265.892,0.00010594,1.398e-05,0.0,0 STARLINK-4497,1 53411U 22097Z   23349.83163393  .00001398  00000-0  10594-3 0  9994,2 53411  53.2159 172.1635 0001375  94.2229 265.8920 15.08838044 75634,6917.886,95.438,540.703,538.8,0.0
53411.0,STARLINK-4497,PAYLOAD,2023-12-16 18:12:56,15.0884806,0.0001396,53.2157,168.001,90.2392,269.876,0.00011555,1.552e-05,0.0,0 STARLINK-4497,1 53411U 22097Z   23350.75898741  .00001552  00000-0  11555-3 0  9999,2 53411  53.2157 168.0010 0001396  90.2392 269.8760 15.08848060 75289,6917.856,95.437,540.686,538.755,0.0
53411.0,STARLINK-4497,PAYLOAD,2023-12-17 18:03:43,15.08846174,0.0001437,53.2159,163.5375,76.5402,283.5751,3.1099e-05,2.07e-06,0.0,0 STARLINK-4497,1 53411U 22097Z   23351.75258914  .00000207  00000-0  31099-4 0  9994,2 53411  53.2159 163.5375 0001437  76.5402 283.5751 15.08846174 75434,6917.862,95.437,540.721,538.732,0.0
53411.0,STARLINK-4497,PAYLOAD,2023-12-18 14:43:44,15.08827908,0.0001369,53.2168,159.6728,108.1164,251.9977,0.00026618,3.949e-05,0.0,0 STARLINK-4497,1 53411U 22097Z   23352.61370554  .00003949  00000-0  26618-3 0  9991,2 53411  53.2168 159.6728 0001369 108.1164 251.9977 15.08827908 76055,6917.917,95.438,540.729,538.835,0.0
53411.0,STARLINK-4497,PAYLOAD,2023-12-18 17:54:30,15.08851076,0.0001423,53.2166,159.0749,94.757,265.3584,-1.0343e-05,-4.53e-06,0.0,0 STARLINK-4497,1 53411U 22097Z   23352.74618240 -.00000453  00000-0 -10343-4 0  9990,2 53411  53.2166 159.0749 0001423  94.7570 265.3584 15.08851076 76070,6917.847,95.437,540.696,538.727,0.0
53411.0,STARLINK-4497,PAYLOAD,2023-12-19 14:34:31,15.088416,0.0001524,53.2169,155.212,98.2989,261.8176,2.8482e-05,1.65e-06,0.0,0 STARLINK-4497,1 53411U 22097Z   23353.60730548  .00000165  00000-0  28482-4 0  9993,2 53411  53.2169 155.2120 0001524  98.2989 261.8176 15.08841600 76204,6917.875,95.437,540.795,538.686,0.0
53411.0,STARLINK-4497,PAYLOAD,2023-12-19 17:45:17,15.08841202,0.0001396,53.2165,154.6149,92.1119,268.0033,2.0642e-05,4.1e-07,0.0,0 STARLINK-4497,1 53411U 22097Z   23353.73978551  .00000041  00000-0  20642-4 0  9998,2 53411  53.2165 154.6149 0001396  92.1119 268.0033 15.08841202 75735,6917.877,95.437,540.707,538.776,0.0
53411.0,STARLINK-4497,PAYLOAD,2023-12-20 17:36:04,15.08839768,0.0001369,53.2165,150.1548,92.6537,267.4612,6.2799e-06,-1.88e-06,0.0,0 STARLINK-4497,1 53411U 22097Z   23354.73338725 -.00000188  00000-0  62799-5 0  9995,2 53411  53.2165 150.1548 0001369  92.6537 267.4612 15.08839768 76379,6917.881,95.438,540.693,538.799,0.0
53411.0,STARLINK-4497,PAYLOAD,2023-12-21 14:16:05,15.08836762,0.0001337,53.2166,146.2893,90.3929,269.7216,3.9428e-05,3.4e-06,0.0,0 STARLINK-4497,1 53411U 22097Z   23355.59450951  .00000340  00000-0  39428-4 0  9997,2 53411  53.2166 146.2893 0001337  90.3929 269.7216 15.08836762 76505,6917.89,95.438,540.68,538.83,0.0
53411.0,STARLINK-4497,PAYLOAD,2023-12-21 15:51:28,15.08837039,0.0001338,53.2168,145.9919,89.6688,270.4458,4.0083e-05,3.5e-06,0.0,0 STARLINK-4497,1 53411U 22097Z   23355.66074943  .00000350  00000-0  40083-4 0  9998,2 53411  53.2168 145.9919 0001338  89.6688 270.4458 15.08837039 76028,6917.889,95.438,540.68,538.829,0.0
53411.0,STARLINK-4497,PAYLOAD,2023-12-22 14:06:52,15.08838874,0.0001312,53.217,141.8291,88.9604,271.1539,4.986e-05,5.06e-06,0.0,0 STARLINK-4497,1 53411U 22097Z   23356.58811056  .00000506  00000-0  49860-4 0  9999,2 53411  53.2170 141.8291 0001312  88.9604 271.1539 15.08838874 76656,6917.884,95.438,540.656,538.841,0.0
53411.0,STARLINK-4497,PAYLOAD,2023-12-22 17:17:38,15.08843477,0.0001336,53.217,141.2348,82.3112,277.8032,8.5797e-05,1.078e-05,0.0,0 STARLINK-4497,1 53411U 22097Z   23356.72058706  .00001078  00000-0  85797-4 0  9994,2 53411  53.2170 141.2348 0001336  82.3112 277.8032 15.08843477 76185,6917.87,95.437,540.659,538.811,0.0
53411.0,STARLINK-4497,PAYLOAD,2023-12-23 13:57:40,15.088152,0.0001799,53.2184,137.3722,64.8288,295.2891,0.0003461,5.221e-05,0.0,0 STARLINK-4497,1 53411U 22097Z   23357.58171767  .00005221  00000-0  34610-3 0  9993,2 53411  53.2184 137.3722 0001799  64.8288 295.2891 15.08815200 76803,6917.956,95.439,541.066,538.577,0.0
53411.0,STARLINK-4497,PAYLOAD,2023-12-23 18:43:49,15.08842932,0.000151,53.2184,136.471,74.4193,285.6965,7.931e-05,9.75e-06,0.0,0 STARLINK-4497,1 53411U 22097Z   23357.78042883  .00000975  00000-0  79310-4 0  9999,2 53411  53.2184 136.4710 0001510  74.4193 285.6965 15.08842932 76349,6917.871,95.437,540.781,538.692,0.0
53411.0,STARLINK-4497,PAYLOAD,2023-12-24 09:02:18,15.08834972,0.0001264,53.2184,133.8029,55.88,304.2312,-1.605e-05,-5.43e-06,0.0,0 STARLINK-4497,1 53411U 22097Z   23358.37659851 -.00000543  00000-0 -16050-4 0  9999,2 53411  53.2184 133.8029 0001264  55.8800 304.2312 15.08834972 76436,6917.896,95.438,540.635,538.886,0.0
53411.0,STARLINK-4497,PAYLOAD,2023-12-24 13:48:26,15.0884439,0.0001541,53.2174,132.9123,94.1804,265.9365,2.492e-06,-2.48e-06,0.0,0 STARLINK-4497,1 53411U 22097Z   23358.57531012 -.00000248  00000-0  24920-5 0  9996,2 53411  53.2174 132.9123 0001541  94.1804 265.9365 15.08844390 76951,6917.867,95.437,540.798,538.666,0.0
53411.0,STARLINK-4497,PAYLOAD,2023-12-24 15:23:49,15.08844836,0.0001458,53.2173,132.6146,99.7867,260.3289,5.2718e-06,-2.04e-06,0.0,0 STARLINK-4497,1 53411U 22097Z   23358.64154908 -.00000204  00000-0  52718-5 0  9997,2 53411  53.2173 132.6146 0001458  99.7867 260.3289 15.08844836 76475,6917.866,95.437,540.739,538.722,0.0
53411.0,STARLINK-4497,PAYLOAD,2023-12-25 13:39:14,15.08841659,0.0001437,53.217,128.4523,80.2266,279.8888,1.6382e-05,-2.7e-07,0.0,0 STARLINK-4497,1 53411U 22097Z   23359.56891248 -.00000027  00000-0  16382-4 0  9993,2 53411  53.2170 128.4523 0001437  80.2266 279.8888 15.08841659 77100,6917.875,95.437,540.734,538.746,0.0
53411.0,STARLINK-4497,PAYLOAD,2023-12-25 18:25:23,15.08843511,0.0001371,53.2176,127.5526,89.2118,270.9031,1.8528e-05,7e-08,0.0,0 STARLINK-4497,1 53411U 22097Z   23359.76762933  .00000007  00000-0  18528-4 0  9994,2 53411  53.2176 127.5526 0001371  89.2118 270.9031 15.08843511 76640,6917.87,95.437,540.683,538.786,0.0
53411.0,STARLINK-4497,PAYLOAD,2023-12-26 11:54:38,15.08843689,0.000132,53.2173,124.279,119.9402,240.1721,-0.00013145,-2.38e-05,0.0,0 STARLINK-4497,1 53411U 22097Z   23360.49627524 -.00002380  00000-0 -13145-3 0  9999,2 53411  53.2173 124.2790 0001320 119.9402 240.1721 15.08843689 76758,6917.869,95.437,540.647,538.821,0.0
53411.0,STARLINK-4497,PAYLOAD,2023-12-26 13:30:01,15.08843508,0.0001516,53.2184,123.9819,126.9335,233.1796,-0.00011737,-2.156e-05,0.0,0 STARLINK-4497,1 53411U 22097Z   23360.56251433 -.00002156  00000-0 -11737-3 0  9995,2 53411  53.2184 123.9819 0001516 126.9335 233.1796 15.08843508 77258,6917.87,95.437,540.783,538.686,0.0
53411.0,STARLINK-4497,PAYLOAD,2023-12-26 18:16:10,15.08841833,0.0001417,53.2179,123.0912,120.6424,239.4708,-0.00010523,-1.962e-05,0.0,0 STARLINK-4497,1 53411U 22097Z   23360.76123483 -.00001962  00000-0 -10523-3 0  9996,2 53411  53.2179 123.0912 0001417 120.6424 239.4708 15.08841833 77281,6917.875,95.437,540.72,538.76,0.0
53411.0,STARLINK-4497,PAYLOAD,2023-12-27 14:56:10,15.08846185,0.0001273,53.2175,119.2285,85.3555,274.7582,5.868e-05,6.46e-06,0.0,0 STARLINK-4497,1 53411U 22097Z   23361.62234894  .00000646  00000-0  58680-4 0  9994,2 53411  53.2175 119.2285 0001273  85.3555 274.7582 15.08846185 77411,6917.861,95.437,540.607,538.846,0.0
53411.0,STARLINK-4497,PAYLOAD,2023-12-28 11:36:10,15.08857218,0.0001361,53.217,115.3646,100.2872,259.8273,0.00025604,3.791e-05,0.0,0 STARLINK-4497,1 53411U 22097Z   23362.48345815  .00003791  00000-0  25604-3 0  9998,2 53411  53.2170 115.3646 0001361 100.2872 259.8273 15.08857218 77051,6917.828,95.436,540.634,538.751,0.0
